ECHOSTAR 7              
1 27378U 02006A   18253.66667872 -.00000030  00000-0  00000+0 0  9995
2 27378   0.0431 312.3919 0001790 266.4068 252.0358  1.00272815 60629
INTELSAT 904 (IS-904)   
1 27380U 02007A   18252.90560250  .00000106  00000-0  00000-0 0  9991
2 27380   0.0133 168.6558 0002507 359.3872 191.9603  1.00271447 23324
TDRS 9                  
1 27389U 02011A   18253.68796425 -.00000127  00000-0  00000-0 0  9990
2 27389   6.1652  73.9223 0016504 253.3888 257.9608  1.00271652 62009
JCSAT 2A                
1 27399U 02015A   18254.49862469 -.00000283  00000-0  00000+0 0  9999
2 27399   1.4464  89.9124 0008625 167.3059   5.7420  1.00274141 60189
ASTRA 3A                
1 27400U 02015B   18254.34347767 -.00000308  00000-0  00000+0 0  9993
2 27400   4.6689  66.6550 0002283 103.8416 256.4836  1.00274257 60282
INTELSAT 903 (IS-903)   
1 27403U 02016A   18254.40195296 -.00000253  00000-0  00000+0 0  9991
2 27403   0.8134  93.7142 0002075  52.9519 316.8994  1.00270816 60219
NSS-7                   
1 27414U 02019A   18254.30802848 -.00000184  00000-0  00000+0 0  9996
2 27414   2.8328  80.6306 0002582  89.4188 271.1319  1.00271900 60124
DIRECTV 5 (TEMPO 1)     
1 27426U 02023A   18253.33556046 -.00000086  00000-0  00000+0 0  9993
2 27426   0.0050 161.5050 0003334  17.0400 181.4535  1.00271879 59861
INTELSAT 905 (IS-905)   
1 27438U 02027A   18254.40334874 -.00000213  00000-0  00000+0 0  9994
2 27438   0.0253 223.0048 0002560 284.5390 323.5337  1.00272210 59521
EXPRESS-A4              
1 27441U 02029A   18253.87372022 -.00000269  00000-0  00000+0 0  9998
2 27441   6.7986  53.7839 0011343  91.0273 305.2012  1.00273457 59539
GALAXY 3C (G-3C)        
1 27445U 02030A   18254.29105147 -.00000181  00000-0  00000+0 0  9996
2 27445   0.0381 303.4783 0001451  37.7105  18.8040  1.00274616 59527
EUTELSAT 5 WEST A       
1 27460U 02035A   18253.04444333 -.00000072  00000-0  00000+0 0  9992
2 27460   0.0495   9.1629 0004898 158.2381 192.6086  1.00271869 59306
N-STAR C                
1 27461U 02035B   18254.32643981 -.00000337  00000-0  00000+0 0  9999
2 27461   5.4552  62.3362 0003186  37.5465 143.9417  1.00269545 59222
EUTELSAT 36 WEST A      
1 27508U 02040A   18253.86350337  .00000025  00000-0  00000+0 0  9998
2 27508   0.2326  81.8406 0002965 116.6509 161.4960  1.00270675 58811
METEOSAT-8 (MSG-1)      
1 27509U 02040B   18254.07077307  .00000114  00000-0  00000+0 0  9995
2 27509   5.6092  56.6346 0000379  30.9495 329.2801  1.00275659 58818
INTELSAT 906 (IS-906)   
1 27513U 02041A   18254.20541062 -.00000014  00000-0  00000+0 0  9990
2 27513   0.0254 220.0778 0002840 332.7140 295.4812  1.00271008 58532
HISPASAT 1D             
1 27528U 02044A   18253.84627363 -.00000246  00000-0  00000-0 0  9995
2 27528   0.0192 279.9433 0002844 277.4369  67.0964  1.00269938 14545
TDRS 10                 
1 27566U 02055A   18253.67049364  .00000052  00000-0  00000-0 0  9993
2 27566   5.7986  56.4382 0005745 234.4537 125.7158  1.00272672 57794
NSS-6                   
1 27603U 02057A   18254.06827590 -.00000299  00000-0  00000+0 0  9999
2 27603   0.0096 133.7173 0002034  71.9281 263.9759  1.00271999 57659
NIMIQ 2                 
1 27632U 02062A   18254.32797445 -.00000234  00000-0  00000+0 0  9990
2 27632   2.9392  79.8883 0001765 159.8567 200.6527  1.00272992 57444
INTELSAT 907 (IS-907)   
1 27683U 03007A   18254.10402107 -.00000232  00000-0  00000+0 0  9998
2 27683   0.0221 210.2802 0002662 314.1873 195.5386  1.00272107 56953
GALAXY 12 (G-12)        
1 27715U 03013B   18254.17475139  .00000029  00000-0  00000+0 0  9996
2 27715   0.0120 120.2927 0002488  74.1184  89.6416  1.00272778 56567
ASIASAT 4               
1 27718U 03014A   18254.48761855  .00000125  00000-0  00000+0 0  9994
2 27718   0.0114 197.3679 0000647 147.0726 219.7620  1.00270841 56482
HELLAS-SAT 2            
1 27811U 03020A   18254.48779302  .00000124  00000-0  00000+0 0  9990
2 27811   0.4318 102.8033 0006433  96.9781   5.2562  1.00270643 55902
THURAYA-2               
1 27825U 03026A   18254.05806929  .00000104  00000-0  00000+0 0  9998
2 27825   5.3119  30.7849 0004906 134.6346 249.5243  1.00273184 55906
OPTUS C1                
1 27831U 03028B   18254.15219677 -.00000176  00000-0  00000+0 0  9996
2 27831   0.0382 151.1572 0004207  21.3160  28.4489  1.00272048 55889
ECHOSTAR 12 (RAINBOW 1) 
1 27852U 03033A   18254.46284358 -.00000228  00000-0  00000+0 0  9995
2 27852   0.0437 300.1893 0001414 249.6893 240.7488  1.00273694 55527
GALAXY 23 (G-23)        
1 27854U 03034A   18253.61417115 -.00000017  00000-0  00000+0 0  9999
2 27854   0.0172 141.6218 0003096  35.5467 272.5422  1.00272896 60105
GALAXY 13 (HORIZONS-1)  
1 27954U 03044A   18254.17883038  .00000019  00000-0  00000+0 0  9995
2 27954   0.0299 113.6040 0001761  70.7186 103.2117  1.00268752 54722
YAMAL 202               
1 28089U 03053A   18254.20261907  .00000090  00000-0  00000+0 0  9993
2 28089   0.0347 109.2442 0003157  65.5344 297.3557  1.00274720 54244
EXPRESS-AM22 (SESAT 2)  
1 28134U 03060A   18254.35240302 -.00000166  00000-0  00000+0 0  9999
2 28134   1.4118  89.5197 0000330 207.6885 260.0834  1.00273979 53836
AMC-10 (GE-10)          
1 28154U 04003A   18254.48998494  .00000059  00000-0  00000+0 0  9995
2 28154   0.0435 295.9692 0002011 188.8874 266.9890  1.00273212 53505
ABS-4 (MOBISAT-1)       
1 28184U 04007A   18254.14563740  .00000012  00000-0  00000+0 0  9996
2 28184   0.0048 191.9864 0002137   8.8163 262.7538  1.00271449 53148
EUTELSAT 7A             
1 28187U 04008A   18254.26603953  .00000019  00000-0  00000+0 0  9991
2 28187   0.0690 343.4609 0005622 191.1685 278.3827  1.00274601 53149
DIRECTV 7S              
1 28238U 04016A   18254.19183275 -.00000028  00000-0  00000+0 0  9990
2 28238   0.0394 307.8493 0002901 227.2203 125.0801  1.00272246 52621
AMC-11 (GE-11)          
1 28252U 04017A   18254.54134354  .00000040  00000-0  00000+0 0  9993
2 28252   0.0556 312.9613 0002586 225.8177 235.6023  1.00272953 52271
INTELSAT 10-02          
1 28358U 04022A   18253.82410560 -.00000041  00000-0  00000+0 0  9994
2 28358   0.0110 171.2540 0000453 238.3080 235.9356  1.00271269 52183
APSTAR 5 (TELSTAR 18)   
1 28364U 04024A   18254.50752274 -.00000322  00000-0  00000+0 0  9992
2 28364   0.0405 119.7997 0003216  54.9019 136.4839  1.00272296 52119
ANIK F2                 
1 28378U 04027A   18253.56601215 -.00000079  00000-0  00000+0 0  9992
2 28378   0.0233 143.6010 0000112 284.2655  14.3694  1.00271086 51917
AMC-15                  
1 28446U 04041A   18254.55788097 -.00000118  00000-0  00000+0 0  9992
2 28446   0.0437 330.7652 0002377 209.1778 266.3624  1.00272301 50942
AMC-16                  
1 28472U 04048A   18254.16064277 -.00000235  00000-0  00000+0 0  9992
2 28472   0.0473 312.5084 0002367 219.2164 151.2255  1.00270910 50371
NSS-10 (AMC-12)         
1 28526U 05003A   18254.47252677 -.00000279  00000-0  00000+0 0  9999
2 28526   0.0431 318.8735 0002674 201.0416 323.1813  1.00273007 49881
XTAR-EUR                
1 28542U 05005A   18252.95014285  .00000121  00000-0  00000-0 0  9997
2 28542   0.0202 173.4377 0001810  20.7989 165.7583  1.00269324 49740
XM-3 (RHYTHM)           
1 28626U 05008A   18254.46310528 -.00000235  00000-0  00000+0 0  9996
2 28626   0.0165 338.6466 0000101 330.2767 123.1214  1.00272909 49630
INMARSAT 4-F1           
1 28628U 05009A   18253.68175429 -.00000288  00000-0  00000+0 0  9999
2 28628   2.9326  18.2833 0002666 157.0447 203.2664  1.00272276 49231
APSTAR 6                
1 28638U 05012A   18254.50673762 -.00000347  00000-0  00000+0 0  9995
2 28638   0.2184  97.9361 0003166  90.1215 118.6371  1.00272113 73973
SPACEWAY 1              
1 28644U 05015A   18254.56304216  .00000005  00000-0  00000+0 0  9996
2 28644   0.0361 233.0705 0000368 212.5707 346.2536  1.00127628 49084
DIRECTV 8               
1 28659U 05019A   18253.30989808 -.00000145  00000-0  00000+0 0  9999
2 28659   0.0277  48.8099 0002813 125.3990 185.7919  1.00271630 48742
GALAXY 28 (G-28)        
1 28702U 05022A   18254.17513979 -.00000214  00000-0  00000+0 0  9997
2 28702   0.0209 177.7071 0000265 244.8873 261.6030  1.00270085 48385
EXPRESS-AM3             
1 28707U 05023A   18253.83380822 -.00000351  00000-0  00000-0 0  9997
2 28707   0.3581  94.8848 0000970  45.5544 252.5497  1.00270721 48407
THAICOM 4               
1 28786U 05028A   18254.16021708 -.00000392  00000-0  00000+0 0  9995
2 28786   0.0192 137.4371 0002031  29.8143   0.0370  1.00272762 47888
GALAXY 14 (G-14)        
1 28790U 05030A   18253.66545741  .00000007  00000-0  00000+0 0  9997
2 28790   0.0470 290.6319 0002287 239.3808 294.2025  1.00273168 47868
ANIK F1R                
1 28868U 05036A   18254.55628414 -.00000103  00000-0  00000+0 0  9995
2 28868   0.0196  83.3212 0001170  33.2439 326.8903  1.00271754 47720
GALAXY 15 (G-15)        
1 28884U 05041A   18254.49241329  .00000050  00000-0  00000+0 0  9998
2 28884   0.0425 275.2733 0001788 256.5420 222.9214  1.00273427 47199
SYRACUSE 3A             
1 28885U 05041B   18254.49077418  .00000100  00000-0  00000+0 0  9991
2 28885   0.0117 156.2234 0003148   7.8324  50.0667  1.00270806 47295
INMARSAT 4-F2           
1 28899U 05044A   18253.90843754 -.00000017  00000-0  00000+0 0  9996
2 28899   2.7082  20.4614 0002984 163.3277 197.0154  1.00272488 47062
TELKOM 2                
1 28902U 05046A   18254.15237125 -.00000167  00000-0  00000+0 0  9996
2 28902   0.0314 248.7606 0002082 202.0541 111.1836  1.00272728 46808
SPACEWAY 2              
1 28903U 05046B   18254.22861484 -.00000156  00000-0  00000+0 0  9994
2 28903   0.0138  84.8732 0000247 264.1259 344.4275  1.00272021 47050
INSAT-4A                
1 28911U 05049A   18253.79777095 -.00000195  00000-0  00000-0 0  9995
2 28911   0.0641 268.4646 0003964 313.2515 138.2515  1.00273192 17279
